IRIDIUM 144             
1 43249U 18030A   24323.84962360  .00000438  00000+0  14921-3 0  9990
2 43249  86.3997 170.8998 0002069  79.8454 280.2975 14.34218084347699
IRIDIUM 149             
1 43250U 18030B   24323.15827951  .00000185  00000+0  58977-4 0  9991
2 43250  86.3991 171.1618 0001908  86.5457 273.5957 14.34218809347596
IRIDIUM 157             
1 43251U 18030C   24323.52614395  .00000382  00000+0  12920-3 0  9995
2 43251  86.3999 171.0487 0001973  89.4618 270.6804 14.34214806347627
IRIDIUM 140             
1 43252U 18030D   24323.47540274  .00000026  00000+0  22903-5 0  9993
2 43252  86.4000 171.0840 0002118  83.8198 276.3239 14.34214754347670
IRIDIUM 145             
1 43253U 18030E   24323.53249512  .00000557  00000+0  19191-3 0  9994
2 43253  86.3998 171.0335 0001925  75.0732 285.0677 14.34220302347610
IRIDIUM 146             
1 43254U 18030F   24323.86230984  .00000458  00000+0  15635-3 0  9993
2 43254  86.3997 170.9102 0001873  74.8117 285.3285 14.34219542347674
IRIDIUM 148             
1 43255U 18030G   24323.34223080  .00000329  00000+0  11046-3 0  9995
2 43255  86.3998 171.1614 0001759  83.1350 277.0045 14.34213168347638
IRIDIUM 142             
1 43256U 18030H   24323.51980280  .00000350  00000+0  11775-3 0  9990
2 43256  86.3997 170.9973 0001708  75.2981 284.8404 14.34220958347628
